{"type": "FeatureCollection", "features": [ {"type": "Feature", "properties": {"norad_id": 54234, "name": "NOAA 21 (JPSS-2)", "group": "weather", "lat": -68.0693171306485, "lon": -59.98317534245963, "alt_km": 835.0138300555955, "timestamp": "2025-12-07T03:52:32.112633+00:00", "meta": {"OBJECT_NAME": "NOAA 21 (JPSS-2)", "OBJECT_ID": "2022-150A", "EPOCH": "2025-12-06T14:40:14.399328", "MEAN_MOTION": 14.19521654, "ECCENTRICITY": 0.000243, "INCLINATION": 98.7453, "RA_OF_ASC_NODE": 276.9963, "ARG_OF_PERICENTER": 49.5251, "MEAN_ANOMALY": 310.6137, "EPHEMERIS_TYPE": 0, "CLASSIFICATION_TYPE": "U", "NORAD_CAT_ID": 54234, "ELEMENT_SET_NO": 999, "REV_AT_EPOCH": 15922, "BSTAR": 0.00012419876, "MEAN_MOTION_DOT": 2.18e-06, "MEAN_MOTION_DDOT": 0}, "tle": {"line1": "1 54234U 22150A   25340.61127777  .00000218  00000+0  12420-3 0  9992", "line2": "2 54234  98.7453 276.9963 0002430  49.5251 310.6137 14.19521654159221"}}, "geometry": {"type": "Point", "coordinates": [-59.98317534245963, -68.0693171306485]}}, {"type": "Feature", "properties": {"norad_id": 54743, "name": "METEOSAT-12 (MTG-I1)", "group": "weather", "lat": 0.7129698953119704, "lon": 134.05072329709608, "alt_km": 35788.22577845163, "timestamp": "2025-12-07T03:52:32.112647+00:00", "meta": {"OBJECT_NAME": "METEOSAT-12 (MTG-I1)", "OBJECT_ID": "2022-170C", "EPOCH": "2025-12-06T06:08:38.706720", "MEAN_MOTION": 1.00274269, "ECCENTRICITY": 0.00015447, "INCLINATION": 0.722, "RA_OF_ASC_NODE": 30.5247, "ARG_OF_PERICENTER": 220.4766, "MEAN_ANOMALY": 276.1989, "EPHEMERIS_TYPE": 0, "CLASSIFICATION_TYPE": "U", "NORAD_CAT_ID": 54743, "ELEMENT_SET_NO": 999, "REV_AT_EPOCH": 1104, "BSTAR": 0, "MEAN_MOTION_DOT": 1e-08, "MEAN_MOTION_DDOT": 0}, "tle": {"line1": "1 54743U 22170C   25340.25600355  .00000001  00000+0  00000+0 0  9994", "line2": "2 54743   0.7220  30.5247 0001544 220.4766 276.1989  1.00274269 11047"}}, "geometry": {"type": "Point", "coordinates": [134.05072329709608, 0.7129698953119704]}}, {"type": "Feature", "properties": {"norad_id": 55973, "name": "TIANMU-1 03", "group": "weather", "lat": -54.7954914466359, "lon": 154.43629480531365, "alt_km": 453.23351662513323, "timestamp": "2025-12-07T03:52:32.112661+00:00", "meta": {"OBJECT_NAME": "TIANMU-1 03", "OBJECT_ID": "2023-039A", "EPOCH": "2025-12-06T14:05:13.960896", "MEAN_MOTION": 15.40657425, "ECCENTRICITY": 0.00045066, "INCLINATION": 97.5108, "RA_OF_ASC_NODE": 143.0682, "ARG_OF_PERICENTER": 78.8279, "MEAN_ANOMALY": 281.3473, "EPHEMERIS_TYPE": 0, "CLASSIFICATION_TYPE": "U", "NORAD_CAT_ID": 55973, "ELEMENT_SET_NO": 999, "REV_AT_EPOCH": 15111, "BSTAR": 0.00056798119, "MEAN_MOTION_DOT": 0.00023118, "MEAN_MOTION_DDOT": 0}, "tle": {"line1": "1 55973U 23039A   25340.58696714  .00023118  00000+0  56798-3 0  9998", "line2": "2 55973  97.5108 143.0682 0004506  78.8279 281.3473 15.40657425151117"}}, "geometry": {"type": "Point", "coordinates": [154.43629480531365, -54.7954914466359]}}, {"type": "Feature", "properties": {"norad_id": 55974, "name": "TIANMU-1 04", "group": "weather", "lat": 51.15043107975771, "lon": 133.432660501463, "alt_km": 435.1080497355706, "timestamp": "2025-12-07T03:52:32.112671+00:00", "meta": {"OBJECT_NAME": "TIANMU-1 04", "OBJECT_ID": "2023-039B", "EPOCH": "2025-12-06T13:37:33.274272", "MEAN_MOTION": 15.40987962, "ECCENTRICITY": 0.00052164, "INCLINATION": 97.5039, "RA_OF_ASC_NODE": 142.2421, "ARG_OF_PERICENTER": 74.4699, "MEAN_ANOMALY": 285.7123, "EPHEMERIS_TYPE": 0, "CLASSIFICATION_TYPE": "U", "NORAD_CAT_ID": 55974, "ELEMENT_SET_NO": 999, "REV_AT_EPOCH": 15111, "BSTAR": 0.00057812007, "MEAN_MOTION_DOT": 0.00023795, "MEAN_MOTION_DDOT": 0}, "tle": {"line1": "1 55974U 23039B   25340.56774623  .00023795  00000+0  57812-3 0  9992", "line2": "2 55974  97.5039 142.2421 0005216  74.4699 285.7123 15.40987962151112"}}, "geometry": {"type": "Point", "coordinates": [133.432660501463, 51.15043107975771]}}, {"type": "Feature", "properties": {"norad_id": 55975, "name": "TIANMU-1 05", "group": "weather", "lat": 82.37226635018023, "lon": 43.369590415888005, "alt_km": 433.77130604308695, "timestamp": "2025-12-07T03:52:32.112682+00:00", "meta": {"OBJECT_NAME": "TIANMU-1 05", "OBJECT_ID": "2023-039C", "EPOCH": "2025-12-06T13:27:05.680224", "MEAN_MOTION": 15.40613778, "ECCENTRICITY": 0.00043591, "INCLINATION": 97.5085, "RA_OF_ASC_NODE": 142.7267, "ARG_OF_PERICENTER": 95.5259, "MEAN_ANOMALY": 264.6484, "EPHEMERIS_TYPE": 0, "CLASSIFICATION_TYPE": "U", "NORAD_CAT_ID": 55975, "ELEMENT_SET_NO": 999, "REV_AT_EPOCH": 15109, "BSTAR": 0.00058807278, "MEAN_MOTION_DOT": 0.00023906, "MEAN_MOTION_DDOT": 0}, "tle": {"line1": "1 55975U 23039C   25340.56048241  .00023906  00000+0  58807-3 0  9992", "line2": "2 55975  97.5085 142.7267 0004359  95.5259 264.6484 15.40613778151094"}}, "geometry": {"type": "Point", "coordinates": [43.369590415888005, 82.37226635018023]}}, {"type": "Feature", "properties": {"norad_id": 55976, "name": "TIANMU-1 06", "group": "weather", "lat": 38.229288498297905, "lon": 137.83953820141986, "alt_km": 438.14798153036736, "timestamp": "2025-12-07T03:52:32.112702+00:00", "meta": {"OBJECT_NAME": "TIANMU-1 06", "OBJECT_ID": "2023-039D", "EPOCH": "2025-12-06T13:40:59.253600", "MEAN_MOTION": 15.4104085, "ECCENTRICITY": 0.00047009, "INCLINATION": 97.5096, "RA_OF_ASC_NODE": 143.1966, "ARG_OF_PERICENTER": 90.9833, "MEAN_ANOMALY": 269.1952, "EPHEMERIS_TYPE": 0, "CLASSIFICATION_TYPE": "U", "NORAD_CAT_ID": 55976, "ELEMENT_SET_NO": 999, "REV_AT_EPOCH": 15111, "BSTAR": 0.00058142838, "MEAN_MOTION_DOT": 0.00023972, "MEAN_MOTION_DDOT": 0}, "tle": {"line1": "1 55976U 23039D   25340.57013025  .00023972  00000+0  58143-3 0  9992", "line2": "2 55976  97.5096 143.1966 0004700  90.9833 269.1952 15.41040850151114"}}, "geometry": {"type": "Point", "coordinates": [137.83953820141986, 38.229288498297905]}}, {"type": "Feature", "properties": {"norad_id": 56232, "name": "FENGYUN 3G", "group": "weather", "lat": -6.838890591812099, "lon": 82.00972949186568, "alt_km": 406.4894027833343, "timestamp": "2025-12-07T03:52:32.112723+00:00", "meta": {"OBJECT_NAME": "FENGYUN 3G", "OBJECT_ID": "2023-055A", "EPOCH": "2025-12-06T11:37:33.308256", "MEAN_MOTION": 15.53095552, "ECCENTRICITY": 0.00092335, "INCLINATION": 49.9945, "RA_OF_ASC_NODE": 259.7218, "ARG_OF_PERICENTER": 118.6784, "MEAN_ANOMALY": 241.5113, "EPHEMERIS_TYPE": 0, "CLASSIFICATION_TYPE": "U", "NORAD_CAT_ID": 56232, "ELEMENT_SET_NO": 999, "REV_AT_EPOCH": 15005, "BSTAR": 0.00073488736, "MEAN_MOTION_DOT": 0.00046804, "MEAN_MOTION_DDOT": 0}, "tle": {"line1": "1 56232U 23055A   25340.48441329  .00046804  00000+0  73489-3 0  9997", "line2": "2 56232  49.9945 259.7218 0009233 118.6784 241.5113 15.53095552150054"}}, "geometry": {"type": "Point", "coordinates": [82.00972949186568, -6.838890591812099]}}, {"type": "Feature", "properties": {"norad_id": 57166, "name": "METEOR-M2 3", "group": "weather", "lat": 71.28754197737167, "lon": -118.5343902377752, "alt_km": 804.47090001988, "timestamp": "2025-12-07T03:52:32.112742+00:00", "meta": {"OBJECT_NAME": "METEOR-M2 3", "OBJECT_ID": "2023-091A", "EPOCH": "2025-12-06T13:53:11.157504", "MEAN_MOTION": 14.24025017, "ECCENTRICITY": 0.00042447, "INCLINATION": 98.6387, "RA_OF_ASC_NODE": 34.2253, "ARG_OF_PERICENTER": 25.7227, "MEAN_ANOMALY": 334.4162, "EPHEMERIS_TYPE": 0, "CLASSIFICATION_TYPE": "U", "NORAD_CAT_ID": 57166, "ELEMENT_SET_NO": 999, "REV_AT_EPOCH": 12710, "BSTAR": 5.2018901e-05, "MEAN_MOTION_DOT": 7.6e-07, "MEAN_MOTION_DDOT": 0}, "tle": {"line1": "1 57166U 23091A   25340.57860136  .00000076  00000+0  52019-4 0  9993", "line2": "2 57166  98.6387  34.2253 0004244  25.7227 334.4162 14.24025017127106"}}, "geometry": {"type": "Point", "coordinates": [-118.5343902377752, 71.28754197737167]}}, {"type": "Feature", "properties": {"norad_id": 57399, "name": "TIANMU-1 07", "group": "weather", "lat": 8.778238150235964, "lon": 30.0026008223418, "alt_km": 483.5504246300816, "timestamp": "2025-12-07T03:52:32.112763+00:00", "meta": {"OBJECT_NAME": "TIANMU-1 07", "OBJECT_ID": "2023-101A", "EPOCH": "2025-12-06T15:15:46.665792", "MEAN_MOTION": 15.27940086, "ECCENTRICITY": 0.00056052, "INCLINATION": 97.2881, "RA_OF_ASC_NODE": 30.6211, "ARG_OF_PERICENTER": 96.83, "MEAN_ANOMALY": 263.3578, "EPHEMERIS_TYPE": 0, "CLASSIFICATION_TYPE": "U", "NORAD_CAT_ID": 57399, "ELEMENT_SET_NO": 999, "REV_AT_EPOCH": 13222, "BSTAR": 0.00044663823, "MEAN_MOTION_DOT": 0.00012118, "MEAN_MOTION_DDOT": 0}, "tle": {"line1": "1 57399U 23101A   25340.63595678  .00012118  00000+0  44664-3 0  9992", "line2": "2 57399  97.2881  30.6211 0005605  96.8300 263.3578 15.27940086132221"}}, "geometry": {"type": "Point", "coordinates": [30.0026008223418, 8.778238150235964]}}, {"type": "Feature", "properties": {"norad_id": 57400, "name": "TIANMU-1 08", "group": "weather", "lat": -11.212242234948148, "lon": -150.51948928644867, "alt_km": 486.61454142570255, "timestamp": "2025-12-07T03:52:32.112780+00:00", "meta": {"OBJECT_NAME": "TIANMU-1 08", "OBJECT_ID": "2023-101B", "EPOCH": "2025-12-06T14:28:04.999296", "MEAN_MOTION": 15.27924556, "ECCENTRICITY": 0.00075553, "INCLINATION": 97.2869, "RA_OF_ASC_NODE": 30.3878, "ARG_OF_PERICENTER": 100.9217, "MEAN_ANOMALY": 259.2873, "EPHEMERIS_TYPE": 0, "CLASSIFICATION_TYPE": "U", "NORAD_CAT_ID": 57400, "ELEMENT_SET_NO": 999, "REV_AT_EPOCH": 13221, "BSTAR": 0.00043567692, "MEAN_MOTION_DOT": 0.00011817, "MEAN_MOTION_DDOT": 0}, "tle": {"line1": "1 57400U 23101B   25340.60283564  .00011817  00000+0  43568-3 0  9997", "line2": "2 57400  97.2869  30.3878 0007555 100.9217 259.2873 15.27924556132211"}}, "geometry": {"type": "Point", "coordinates": [-150.51948928644867, -11.212242234948148]}}]}